{"epoch":1784762836,"count":18316,"objects":[{"id":"43603","name":"BEIDOU 3M12","type":"PAYLOAD","l1":"1 43603U 18067B   26203.48334856  .00000074  00000-0  00000-0 0  9993","l2":"2 43603  54.1790 179.8069 0004712  13.8636 346.1302  1.86227144 53805"},{"id":"43622","name":"BEIDOU 3M13","type":"PAYLOAD","l1":"1 43622U 18072A   26201.82711213 -.00000080  00000-0  00000-0 0  9990","l2":"2 43622  56.6540  61.5496 0005671 334.9185  25.1158  1.86231285 53284"},{"id":"43623","name":"BEIDOU 3M14","type":"PAYLOAD","l1":"1 43623U 18072B   26202.22949836 -.00000080  00000-0  00000-0 0  9990","l2":"2 43623  56.6565  61.5310 0005432  13.4516 346.6246  1.86231111 53286"},{"id":"43647","name":"BEIDOU 3M15","type":"PAYLOAD","l1":"1 43647U 18078A   26201.84740124 -.00000098  00000-0  00000-0 0  9997","l2":"2 43647  54.0571 298.8050 0006517  39.3061 320.7783  1.86232384 52780"},{"id":"43648","name":"BEIDOU 3M16","type":"PAYLOAD","l1":"1 43648U 18078B   26201.97666235 -.00000098  00000-0  00000-0 0  9992","l2":"2 43648  54.0528 298.8006 0003388  57.1042 302.9655  1.86232487 52801"},{"id":"43683","name":"BEIDOU 3G1","type":"PAYLOAD","l1":"1 43683U 18085A   26203.58204098 -.00000107  00000-0  00000-0 0  9994","l2":"2 43683   2.9560  96.4144 0008313 357.3143 216.1265  1.00272967 28419"},{"id":"43706","name":"BEIDOU 3M17","type":"PAYLOAD","l1":"1 43706U 18093A   26203.11628203  .00000078  00000-0  00000-0 0  9992","l2":"2 43706  54.1702 181.1114 0010000 295.2679   0.0935  1.86228496 52188"},{"id":"43707","name":"BEIDOU 3M18","type":"PAYLOAD","l1":"1 43707U 18093B   26202.00234979  .00000078  00000-0  00000-0 0  9993","l2":"2 43707  54.1710 181.1414 0008118 324.4293  35.4967  1.86226686 52169"},{"id":"44204","name":"BEIDOU 3 IGSO-1","type":"PAYLOAD","l1":"1 44204U 19023A   26203.44280863 -.00000208  00000-0  00000+0 0  9997","l2":"2 44204  58.7457  37.2857 0026194 223.4912 318.1363  1.00281841  7567"},{"id":"44231","name":"BEIDOU 2 G8","type":"PAYLOAD","l1":"1 44231U 19027A   26203.64289757 -.00000245  00000-0  00000-0 0  9996","l2":"2 44231   1.7460  74.5118 0009580 284.0006 317.8242  1.00270180 26433"},{"id":"44337","name":"BEIDOU 3 IGSO-2","type":"PAYLOAD","l1":"1 44337U 19035A   26202.76760661 -.00000106  00000-0  00000-0 0  9998","l2":"2 44337  55.2573 158.5594 0039051 212.8700 322.7485  1.00289985 26017"},{"id":"44542","name":"BEIDOU 3M23","type":"PAYLOAD","l1":"1 44542U 19061A   26202.07053170  .00000079  00000-0  00000-0 0  9997","l2":"2 44542  54.3973 181.5850 0008711   0.1669 359.8142  1.86229270 46424"},{"id":"44543","name":"BEIDOU 3M24","type":"PAYLOAD","l1":"1 44543U 19061B   26202.36894043  .00000079  00000-0  00000-0 0  9992","l2":"2 44543  54.3962 181.5433 0006008 341.8135 129.6135  1.86227442 46435"}]}